0 FENGYUN 1C DEB
1 31027U 99025BDV 13282.33152365  .00001892  00000-0  10735-2 0  2904
2 31027 099.0686 308.2734 0084754 076.4601 284.8151 14.09399873337029
0 FENGYUN 1C DEB
1 31027U 99025BDV 13286.30696355  .00002469  00000-0  13911-2 0  2918
2 31027 099.0558 312.2620 0086162 065.3453 295.8056 14.09429686337586
0 FENGYUN 1C DEB
1 31027U 99025BDV 13291.91505183  .00002936  00000-0  16477-2 0  2929
2 31027 099.0634 317.9404 0086738 053.3109 307.7116 14.09464626338378
